{
  "type": "FeatureCollection",
  "features": [
    {
      "type": "Feature",
      "geometry": {
        "type": "Point",
        "coordinates": [
          -86.77449,
          36.111744
        ]
      },
      "properties": {
        "partner_name": "Antioch After School Program",
        "address": "5589 Broadway, Nashville, TN 37201",
        "partner_type": "after_school",
        "geocode_status": "success"
      }
    },
    {
      "type": "Feature",
      "geometry": {
        "type": "Point",
        "coordinates": [
          -86.763529,
          36.195771
        ]
      },
      "properties": {
        "partner_name": "Bordeaux Family Shelter",
        "address": "8889 West End Ave, Nashville, TN 37203",
        "partner_type": "transitional_housing",
        "geocode_status": "success"
      }
    },
    {
      "type": "Feature",
      "geometry": {
        "type": "Point",
        "coordinates": [
          -86.698942,
          36.097597
        ]
      },
      "properties": {
        "partner_name": "Donelson Development Corp",
        "address": "731 Charlotte Ave, Nashville, TN 37204",
        "partner_type": "community_development",
        "geocode_status": "success"
      }
    },
    {
      "type": "Feature",
      "geometry": {
        "type": "Point",
        "coordinates": [
          -86.718045,
          36.110696
        ]
      },
      "properties": {
        "partner_name": "East Nashville Job Training Center",
        "address": "8596 Gallatin Pike, Nashville, TN 37205",
        "partner_type": "workforce_development",
        "geocode_status": "success"
      }
    },
    {
      "type": "Feature",
      "geometry": {
        "type": "Point",
        "coordinates": [
          -86.713737,
          36.14039
        ]
      },
      "properties": {
        "partner_name": "Germantown Workforce Solutions",
        "address": "8292 Nolensville Pike, Nashville, TN 37206",
        "partner_type": "workforce_development",
        "geocode_status": "success"
      }
    },
    {
      "type": "Feature",
      "geometry": {
        "type": "Point",
        "coordinates": [
          -86.856801,
          36.115704
        ]
      },
      "properties": {
        "partner_name": "Napier Elementary Summer Program",
        "address": "6352 Dickerson Pike, Nashville, TN 37208",
        "partner_type": "school_summer",
        "geocode_status": "success"
      }
    },
    {
      "type": "Feature",
      "geometry": {
        "type": "Point",
        "coordinates": [
          -86.893695,
          36.162224
        ]
      },
      "properties": {
        "partner_name": "North Nashville Homeless Services",
        "address": "1735 Shelby Ave, Nashville, TN 37209",
        "partner_type": "homeless_outreach",
        "geocode_status": "success"
      }
    },
    {
      "type": "Feature",
      "geometry": {
        "type": "Point",
        "coordinates": [
          -86.727837,
          36.118748
        ]
      },
      "properties": {
        "partner_name": "Rivergate Career Services",
        "address": "7604 Main St, Nashville, TN 37210",
        "partner_type": "workforce_development",
        "geocode_status": "success"
      }
    },
    {
      "type": "Feature",
      "geometry": {
        "type": "Point",
        "coordinates": [
          -86.882212,
          36.216681
        ]
      },
      "properties": {
        "partner_name": "Sylvan Park Community Center",
        "address": "7034 Church St, Nashville, TN 37211",
        "partner_type": "community_development",
        "geocode_status": "success"
      }
    },
    {
      "type": "Feature",
      "geometry": {
        "type": "Point",
        "coordinates": [
          -86.710196,
          36.223832
        ]
      },
      "properties": {
        "partner_name": "Antioch Elder Care Services",
        "address": "3609 Commerce St, Nashville, TN 37212",
        "partner_type": "senior_services",
        "geocode_status": "success"
      }
    },
    {
      "type": "Feature",
      "geometry": {
        "type": "Point",
        "coordinates": [
          -86.733977,
          36.221849
        ]
      },
      "properties": {
        "partner_name": "Bordeaux Senior Nutrition Program",
        "address": "772 Demonbreun St, Nashville, TN 37213",
        "partner_type": "senior_services",
        "geocode_status": "success"
      }
    },
    {
      "type": "Feature",
      "geometry": {
        "type": "Point",
        "coordinates": [
          -86.775578,
          36.190564
        ]
      },
      "properties": {
        "partner_name": "Donelson Community Center",
        "address": "9708 Rosa L Parks Blvd, Nashville, TN 37214",
        "partner_type": "community_development",
        "geocode_status": "success"
      }
    },
    {
      "type": "Feature",
      "geometry": {
        "type": "Point",
        "coordinates": [
          -86.681014,
          36.187146
        ]
      },
      "properties": {
        "partner_name": "East Nashville Neighborhood Alliance",
        "address": "4511 Jefferson St, Nashville, TN 37215",
        "partner_type": "community_development",
        "geocode_status": "success"
      }
    },
    {
      "type": "Feature",
      "geometry": {
        "type": "Point",
        "coordinates": [
          -86.825817,
          36.098784
        ]
      },
      "properties": {
        "partner_name": "Germantown Senior Nutrition Program",
        "address": "8941 Buchanan St, Nashville, TN 37216",
        "partner_type": "senior_services",
        "geocode_status": "success"
      }
    },
    {
      "type": "Feature",
      "geometry": {
        "type": "Point",
        "coordinates": [
          -86.674847,
          36.094293
        ]
      },
      "properties": {
        "partner_name": "Madison Elementary Summer Program",
        "address": "6810 Trinity Ln, Nashville, TN 37217",
        "partner_type": "school_summer",
        "geocode_status": "success"
      }
    },
    {
      "type": "Feature",
      "geometry": {
        "type": "Point",
        "coordinates": [
          -86.739517,
          36.153942
        ]
      },
      "properties": {
        "partner_name": "Napier Youth Summer Camp",
        "address": "7805 Clarksville Pike, Nashville, TN 37218",
        "partner_type": "school_summer",
        "geocode_status": "success"
      }
    },
    {
      "type": "Feature",
      "geometry": {
        "type": "Point",
        "coordinates": [
          -86.66376,
          36.217279
        ]
      },
      "properties": {
        "partner_name": "Rivergate Transitional Housing",
        "address": "2026 Ellington Pkwy, Nashville, TN 37220",
        "partner_type": "transitional_housing",
        "geocode_status": "success"
      }
    },
    {
      "type": "Feature",
      "geometry": {
        "type": "Point",
        "coordinates": [
          -86.709717,
          36.108585
        ]
      },
      "properties": {
        "partner_name": "Sylvan Park Homeless Services",
        "address": "3702 Lebanon Pike, Nashville, TN 37221",
        "partner_type": "homeless_outreach",
        "geocode_status": "success"
      }
    },
    {
      "type": "Feature",
      "geometry": {
        "type": "Point",
        "coordinates": [
          -86.88987,
          36.224688
        ]
      },
      "properties": {
        "partner_name": "Antioch Medical Outreach",
        "address": "4720 Broadway, Nashville, TN 37228",
        "partner_type": "medical_health",
        "geocode_status": "success"
      }
    },
    {
      "type": "Feature",
      "geometry": {
        "type": "Point",
        "coordinates": [
          -86.816466,
          36.203354
        ]
      },
      "properties": {
        "partner_name": "Bordeaux Community Center",
        "address": "5027 West End Ave, Nashville, TN 37201",
        "partner_type": "community_development",
        "geocode_status": "success"
      }
    },
    {
      "type": "Feature",
      "geometry": {
        "type": "Point",
        "coordinates": [
          -86.778228,
          36.186475
        ]
      },
      "properties": {
        "partner_name": "Donelson Community Health Center",
        "address": "533 Charlotte Ave, Nashville, TN 37203",
        "partner_type": "medical_health",
        "geocode_status": "success"
      }
    },
    {
      "type": "Feature",
      "geometry": {
        "type": "Point",
        "coordinates": [
          -86.869147,
          36.124259
        ]
      },
      "properties": {
        "partner_name": "East Nashville Kids Club",
        "address": "5510 Gallatin Pike, Nashville, TN 37204",
        "partner_type": "after_school",
        "geocode_status": "success"
      }
    },
    {
      "type": "Feature",
      "geometry": {
        "type": "Point",
        "coordinates": [
          -86.876803,
          36.101412
        ]
      },
      "properties": {
        "partner_name": "Germantown Elementary Summer Program",
        "address": "1627 Nolensville Pike, Nashville, TN 37205",
        "partner_type": "school_summer",
        "geocode_status": "success"
      }
    },
    {
      "type": "Feature",
      "geometry": {
        "type": "Point",
        "coordinates": [
          -86.817261,
          36.184746
        ]
      },
      "properties": {
        "partner_name": "Madison Youth Summer Camp",
        "address": "7458 Murfreesboro Pike, Nashville, TN 37206",
        "partner_type": "school_summer",
        "geocode_status": "success"
      }
    },
    {
      "type": "Feature",
      "geometry": {
        "type": "Point",
        "coordinates": [
          -86.735548,
          36.117361
        ]
      },
      "properties": {
        "partner_name": "Napier Kids Club",
        "address": "6861 Dickerson Pike, Nashville, TN 37207",
        "partner_type": "after_school",
        "geocode_status": "success"
      }
    },
    {
      "type": "Feature",
      "geometry": {
        "type": "Point",
        "coordinates": [
          -86.7722,
          36.192596
        ]
      },
      "properties": {
        "partner_name": "North Nashville Elementary Summer Program",
        "address": "9232 Shelby Ave, Nashville, TN 37208",
        "partner_type": "school_summer",
        "geocode_status": "success"
      }
    },
    {
      "type": "Feature",
      "geometry": {
        "type": "Point",
        "coordinates": [
          -86.809101,
          36.232293
        ]
      },
      "properties": {
        "partner_name": "Rivergate Community Health Center",
        "address": "7472 Main St, Nashville, TN 37209",
        "partner_type": "medical_health",
        "geocode_status": "success"
      }
    },
    {
      "type": "Feature",
      "geometry": {
        "type": "Point",
        "coordinates": [
          -86.883567,
          36.216438
        ]
      },
      "properties": {
        "partner_name": "Sylvan Park Development Corp",
        "address": "3729 Church St, Nashville, TN 37210",
        "partner_type": "community_development",
        "geocode_status": "success"
      }
    }
  ]
}